{
  "type": "FeatureCollection",
  "features": [
    {
      "type": "Feature",
      "properties": {
        "norad_id": 31177,
        "name": "FENGYUN 1C DEB",
        "group": "fengyun-1c-debris",
        "lat": 53.092740177265185,
        "lon": 91.7928289935552,
        "alt_km": 1249.4925631951937,
        "timestamp": "2025-12-12T11:38:31.692926+00:00",
        "meta_object_name": "FENGYUN 1C DEB",
        "meta_object_id": "1999-025BJF",
        "meta_epoch": "2025-12-08T17:24:07.966080",
        "meta_mean_motion": 13.622528,
        "meta_eccentricity": 0.0310599,
        "meta_inclination": 98.7576,
        "meta_ra_of_asc_node": 256.5653,
        "meta_arg_of_pericenter": 324.298,
        "meta_mean_anomaly": 91.0785,
        "meta_ephemeris_type": 0,
        "meta_classification_type": "U",
        "meta_norad_cat_id": 31177,
        "meta_element_set_no": 999,
        "meta_rev_at_epoch": 66157,
        "meta_bstar": 0.0076571,
        "meta_mean_motion_dot": 8.152e-05,
        "meta_mean_motion_ddot": 0,
        "tle_line1": "1 31177U 99025BJF 25342.72509220  .00008152  00000+0  76571-2 0  9990",
        "tle_line2": "2 31177  98.7576 256.5653 0310599 324.2980  91.0785 13.62252800661574"
      },
      "geometry": {
        "type": "Point",
        "coordinates": [
          91.7928289935552,
          53.092740177265185
        ]
      }
    },
    {
      "type": "Feature",
      "properties": {
        "norad_id": 31178,
        "name": "FENGYUN 1C DEB",
        "group": "fengyun-1c-debris",
        "lat": 34.581514184595186,
        "lon": 175.33971798079597,
        "alt_km": 905.24863658309,
        "timestamp": "2025-12-12T11:38:31.692937+00:00",
        "meta_object_name": "FENGYUN 1C DEB",
        "meta_object_id": "1999-025BJG",
        "meta_epoch": "2025-12-11T19:45:43.374816",
        "meta_mean_motion": 14.22194156,
        "meta_eccentricity": 0.01260231,
        "meta_inclination": 99.5138,
        "meta_ra_of_asc_node": 347.9876,
        "meta_arg_of_pericenter": 318.1578,
        "meta_mean_anomaly": 41.0016,
        "meta_ephemeris_type": 0,
        "meta_classification_type": "U",
        "meta_norad_cat_id": 31178,
        "meta_element_set_no": 999,
        "meta_rev_at_epoch": 95802,
        "meta_bstar": 0.0030916336,
        "meta_mean_motion_dot": 7.391e-05,
        "meta_mean_motion_ddot": 0,
        "tle_line1": "1 31178U 99025BJG 25345.82341869  .00007391  00000+0  30916-2 0  9995",
        "tle_line2": "2 31178  99.5138 347.9876 0126023 318.1578  41.0016 14.22194156958029"
      },
      "geometry": {
        "type": "Point",
        "coordinates": [
          175.33971798079597,
          34.581514184595186
        ]
      }
    },
    {
      "type": "Feature",
      "properties": {
        "norad_id": 31179,
        "name": "FENGYUN 1C DEB",
        "group": "fengyun-1c-debris",
        "lat": 22.993352508778827,
        "lon": 2.5526800610467277,
        "alt_km": 774.6989964272589,
        "timestamp": "2025-12-12T11:38:31.692947+00:00",
        "meta_object_name": "FENGYUN 1C DEB",
        "meta_object_id": "1999-025BJH",
        "meta_epoch": "2025-12-05T07:01:13.321920",
        "meta_mean_motion": 13.91889906,
        "meta_eccentricity": 0.0215815,
        "meta_inclination": 99.0199,
        "meta_ra_of_asc_node": 359.4166,
        "meta_arg_of_pericenter": 21.1371,
        "meta_mean_anomaly": 339.8541,
        "meta_ephemeris_type": 0,
        "meta_classification_type": "U",
        "meta_norad_cat_id": 31179,
        "meta_element_set_no": 999,
        "meta_rev_at_epoch": 61837,
        "meta_bstar": 0.0018729323,
        "meta_mean_motion_dot": 2.844e-05,
        "meta_mean_motion_ddot": 0,
        "tle_line1": "1 31179U 99025BJH 25339.29251530  .00002844  00000+0  18729-2 0  9991",
        "tle_line2": "2 31179  99.0199 359.4166 0215815  21.1371 339.8541 13.91889906618373"
      },
      "geometry": {
        "type": "Point",
        "coordinates": [
          2.5526800610467277,
          22.993352508778827
        ]
      }
    },
    {
      "type": "Feature",
      "properties": {
        "norad_id": 31180,
        "name": "FENGYUN 1C DEB",
        "group": "fengyun-1c-debris",
        "lat": 22.639980214149837,
        "lon": -58.08322025477951,
        "alt_km": 1019.7365914396123,
        "timestamp": "2025-12-12T11:38:31.692957+00:00",
        "meta_object_name": "FENGYUN 1C DEB",
        "meta_object_id": "1999-025BJJ",
        "meta_epoch": "2025-12-11T05:40:55.282080",
        "meta_mean_motion": 13.70340375,
        "meta_eccentricity": 0.049829,
        "meta_inclination": 99.2175,
        "meta_ra_of_asc_node": 116.8316,
        "meta_arg_of_pericenter": 63.9597,
        "meta_mean_anomaly": 52.2267,
        "meta_ephemeris_type": 0,
        "meta_classification_type": "U",
        "meta_norad_cat_id": 31180,
        "meta_element_set_no": 999,
        "meta_rev_at_epoch": 64046,
        "meta_bstar": 0.00029125687,
        "meta_mean_motion_dot": 5.8e-06,
        "meta_mean_motion_ddot": 0,
        "tle_line1": "1 31180U 99025BJJ 25345.23675095  .00000580  00000+0  29126-3 0  9999",
        "tle_line2": "2 31180  99.2175 116.8316 0498290  63.9597  52.2267 13.70340375640462"
      },
      "geometry": {
        "type": "Point",
        "coordinates": [
          -58.08322025477951,
          22.639980214149837
        ]
      }
    },
    {
      "type": "Feature",
      "properties": {
        "norad_id": 31181,
        "name": "FENGYUN 1C DEB",
        "group": "fengyun-1c-debris",
        "lat": 0.530927812036573,
        "lon": 18.957836127743036,
        "alt_km": 846.0860279840017,
        "timestamp": "2025-12-12T11:38:31.692967+00:00",
        "meta_object_name": "FENGYUN 1C DEB",
        "meta_object_id": "1999-025BJK",
        "meta_epoch": "2025-12-06T13:29:50.146080",
        "meta_mean_motion": 14.11856129,
        "meta_eccentricity": 0.00481542,
        "meta_inclination": 98.7747,
        "meta_ra_of_asc_node": 13.2463,
        "meta_arg_of_pericenter": 91.6254,
        "meta_mean_anomaly": 62.7516,
        "meta_ephemeris_type": 0,
        "meta_classification_type": "U",
        "meta_norad_cat_id": 31181,
        "meta_element_set_no": 999,
        "meta_rev_at_epoch": 95680,
        "meta_bstar": 0.0016824405,
        "meta_mean_motion_dot": 3.063e-05,
        "meta_mean_motion_ddot": 0,
        "tle_line1": "1 31181U 99025BJK 25340.56238595  .00003063  00000+0  16824-2 0  9990",
        "tle_line2": "2 31181  98.7747  13.2463 0048154  91.6254  62.7516 14.11856129956809"
      },
      "geometry": {
        "type": "Point",
        "coordinates": [
          18.957836127743036,
          0.530927812036573
        ]
      }
    },
    {
      "type": "Feature",
      "properties": {
        "norad_id": 31182,
        "name": "FENGYUN 1C DEB",
        "group": "fengyun-1c-debris",
        "lat": 28.29935977872245,
        "lon": 160.0855948374543,
        "alt_km": 826.3428984190523,
        "timestamp": "2025-12-12T11:38:31.692977+00:00",
        "meta_object_name": "FENGYUN 1C DEB",
        "meta_object_id": "1999-025BJL",
        "meta_epoch": "2025-12-09T05:08:12.053760",
        "meta_mean_motion": 14.14545929,
        "meta_eccentricity": 0.0023077,
        "meta_inclination": 98.6814,
        "meta_ra_of_asc_node": 332.187,
        "meta_arg_of_pericenter": 146.444,
        "meta_mean_anomaly": 276.6011,
        "meta_ephemeris_type": 0,
        "meta_classification_type": "U",
        "meta_norad_cat_id": 31182,
        "meta_element_set_no": 999,
        "meta_rev_at_epoch": 96031,
        "meta_bstar": 0.00059768,
        "meta_mean_motion_dot": 1.107e-05,
        "meta_mean_motion_ddot": 0,
        "tle_line1": "1 31182U 99025BJL 25343.21402840  .00001107  00000+0  59768-3 0  9994",
        "tle_line2": "2 31182  98.6814 332.1870 0023077 146.4440 276.6011 14.14545929960315"
      },
      "geometry": {
        "type": "Point",
        "coordinates": [
          160.0855948374543,
          28.29935977872245
        ]
      }
    },
    {
      "type": "Feature",
      "properties": {
        "norad_id": 31183,
        "name": "FENGYUN 1C DEB",
        "group": "fengyun-1c-debris",
        "lat": 29.001151039408025,
        "lon": -34.85458337006258,
        "alt_km": 716.0406235117998,
        "timestamp": "2025-12-12T11:38:31.692988+00:00",
        "meta_object_name": "FENGYUN 1C DEB",
        "meta_object_id": "1999-025BJM",
        "meta_epoch": "2025-12-11T19:29:43.255680",
        "meta_mean_motion": 14.50420745,
        "meta_eccentricity": 0.00474743,
        "meta_inclination": 99.0365,
        "meta_ra_of_asc_node": 329.485,
        "meta_arg_of_pericenter": 110.1605,
        "meta_mean_anomaly": 8.9319,
        "meta_ephemeris_type": 0,
        "meta_classification_type": "U",
        "meta_norad_cat_id": 31183,
        "meta_element_set_no": 999,
        "meta_rev_at_epoch": 97469,
        "meta_bstar": 0.0018048026,
        "meta_mean_motion_dot": 7.109e-05,
        "meta_mean_motion_ddot": 0,
        "tle_line1": "1 31183U 99025BJM 25345.81230620  .00007109  00000+0  18048-2 0  9991",
        "tle_line2": "2 31183  99.0365 329.4850 0047474 110.1605   8.9319 14.50420745974698"
      },
      "geometry": {
        "type": "Point",
        "coordinates": [
          -34.85458337006258,
          29.001151039408025
        ]
      }
    }
  ]
}